DEB001 
1 98650U 00000A   24293.98243819  .00000000  00000-0  00000-0 0    05
2 98650   0.2844 161.0154 0024323  61.9209 219.4971  1.00113485  5604